[{"OBJECT_NAME":"GRUS-1B","OBJECT_ID":"2021-022C","EPOCH":"2026-03-09T23:21:03.699936","MEAN_MOTION":14.98735678,"ECCENTRICITY":0.00144346,"INCLINATION":97.554,"RA_OF_ASC_NODE":315.3658,"ARG_OF_PERICENTER":300.5216,"MEAN_ANOMALY":59.4582,"EPHEMERIS_TYPE":0,"CLASSIFICATION_TYPE":"U","NORAD_CAT_ID":47934,"ELEMENT_SET_NO":999,"REV_AT_EPOCH":27103,"BSTAR":0.00025294791,"MEAN_MOTION_DOT":2.992e-5,"MEAN_MOTION_DDOT":0},{"OBJECT_NAME":"STARLINK-5459","OBJECT_ID":"2023-021AT","EPOCH":"2026-03-09T16:26:52.969920","MEAN_MOTION":14.98337361,"ECCENTRICITY":0.00034326,"INCLINATION":70.0008,"RA_OF_ASC_NODE":164.4772,"ARG_OF_PERICENTER":272.8333,"MEAN_ANOMALY":87.2433,"EPHEMERIS_TYPE":0,"CLASSIFICATION_TYPE":"U","NORAD_CAT_ID":55669,"ELEMENT_SET_NO":999,"REV_AT_EPOCH":16927,"BSTAR":-4.705109e-5,"MEAN_MOTION_DOT":-6.55e-6,"MEAN_MOTION_DDOT":0}]
